[
  {
    "CCSDS_OMM_VERS": "3.0",
    "COMMENT": "GENERATED VIA SPACE-TRACK.ORG API",
    "CREATION_DATE": "2009-04-21T09:15:49",
    "ORIGINATOR": "18 SPCS",
    "OBJECT_NAME": "IRIDIUM 33 DEB",
    "OBJECT_ID": "1997-051JY",
    "CENTER_NAME": "EARTH",
    "REF_FRAME": "TEME",
    "TIME_SYSTEM": "UTC",
    "MEAN_ELEMENT_THEORY": "SGP4",
    "EPOCH": "2009-04-21T09:39:31.624704",
    "MEAN_MOTION": "15.74462180",
    "ECCENTRICITY": "0.00948530",
    "INCLINATION": "86.8016",
    "RA_OF_ASC_NODE": "95.1236",
    "ARG_OF_PERICENTER": "61.7656",
    "MEAN_ANOMALY": "299.3400",
    "EPHEMERIS_TYPE": "0",
    "CLASSIFICATION_TYPE": "U",
    "NORAD_CAT_ID": "34647",
    "ELEMENT_SET_NO": "999",
    "REV_AT_EPOCH": "549",
    "BSTAR": "0.00500000000000",
    "MEAN_MOTION_DOT": "0.00960443",
    "MEAN_MOTION_DDOT": "0.0003160700000",
    "SEMIMAJOR_AXIS": "6724.303",
    "PERIOD": "91.459",
    "APOAPSIS": "409.950",
    "PERIAPSIS": "282.386",
    "OBJECT_TYPE": "DEBRIS",
    "RCS_SIZE": "SMALL",
    "COUNTRY_CODE": "US",
    "LAUNCH_DATE": "1997-09-14",
    "SITE": "TTMTR",
    "DECAY_DATE": "2009-04-21",
    "FILE": "704004",
    "GP_ID": "70871559",
    "TLE_LINE0": "0 IRIDIUM 33 DEB",
    "TLE_LINE1": "1 34647U 97051JY  09111.40244936  .00960443  31607-3  50000-2 0  9993",
    "TLE_LINE2": "2 34647 086.8016 095.1236 0094853 061.7656 299.3400 15.74462180  5494"
  },
  {
    "CCSDS_OMM_VERS": "3.0",
    "COMMENT": "GENERATED VIA SPACE-TRACK.ORG API",
    "CREATION_DATE": "2025-11-26T18:00:39",
    "ORIGINATOR": "18 SPCS",
    "OBJECT_NAME": "IRIDIUM 33 DEB",
    "OBJECT_ID": "1997-051JZ",
    "CENTER_NAME": "EARTH",
    "REF_FRAME": "TEME",
    "TIME_SYSTEM": "UTC",
    "MEAN_ELEMENT_THEORY": "SGP4",
    "EPOCH": "2025-11-26T07:26:43.192032",
    "MEAN_MOTION": "14.10712245",
    "ECCENTRICITY": "0.01876857",
    "INCLINATION": "86.3915",
    "RA_OF_ASC_NODE": "288.5741",
    "ARG_OF_PERICENTER": "349.4459",
    "MEAN_ANOMALY": "10.2806",
    "EPHEMERIS_TYPE": "0",
    "CLASSIFICATION_TYPE": "U",
    "NORAD_CAT_ID": "34648",
    "ELEMENT_SET_NO": "999",
    "REV_AT_EPOCH": "84729",
    "BSTAR": "0.00704416090000",
    "MEAN_MOTION_DOT": "0.00014874",
    "MEAN_MOTION_DDOT": "0.0000000000000",
    "SEMIMAJOR_AXIS": "7235.072",
    "PERIOD": "102.076",
    "APOAPSIS": "992.729",
    "PERIAPSIS": "721.145",
    "OBJECT_TYPE": "DEBRIS",
    "RCS_SIZE": "SMALL",
    "COUNTRY_CODE": "US",
    "LAUNCH_DATE": "1997-09-14",
    "SITE": "TTMTR",
    "DECAY_DATE": null,
    "FILE": "4903404",
    "GP_ID": "303653224",
    "TLE_LINE0": "0 IRIDIUM 33 DEB",
    "TLE_LINE1": "1 34648U 97051JZ  25330.31022213  .00014874  00000-0  70442-2 0  9997",
    "TLE_LINE2": "2 34648  86.3915 288.5741 0187686 349.4459  10.2806 14.10712245847292"
  },
  {
    "CCSDS_OMM_VERS": "3.0",
    "COMMENT": "GENERATED VIA SPACE-TRACK.ORG API",
    "CREATION_DATE": "2011-05-10T12:40:14",
    "ORIGINATOR": "18 SPCS",
    "OBJECT_NAME": "IRIDIUM 33 DEB",
    "OBJECT_ID": "1997-051KA",
    "CENTER_NAME": "EARTH",
    "REF_FRAME": "TEME",
    "TIME_SYSTEM": "UTC",
    "MEAN_ELEMENT_THEORY": "SGP4",
    "EPOCH": "2011-05-08T23:17:40.392096",
    "MEAN_MOTION": "15.69996882",
    "ECCENTRICITY": "0.00249320",
    "INCLINATION": "86.3365",
    "RA_OF_ASC_NODE": "117.6452",
    "ARG_OF_PERICENTER": "151.6872",
    "MEAN_ANOMALY": "208.6358",
    "EPHEMERIS_TYPE": "0",
    "CLASSIFICATION_TYPE": "U",
    "NORAD_CAT_ID": "34649",
    "ELEMENT_SET_NO": "999",
    "REV_AT_EPOCH": "11689",
    "BSTAR": "0.04157000000000",
    "MEAN_MOTION_DOT": "0.05062244",
    "MEAN_MOTION_DDOT": "0.0000000000000",
    "SEMIMAJOR_AXIS": "6737.047",
    "PERIOD": "91.719",
    "APOAPSIS": "375.709",
    "PERIAPSIS": "342.115",
    "OBJECT_TYPE": "DEBRIS",
    "RCS_SIZE": "SMALL",
    "COUNTRY_CODE": "US",
    "LAUNCH_DATE": "1997-09-14",
    "SITE": "TTMTR",
    "DECAY_DATE": "2011-05-10",
    "FILE": "1086504",
    "GP_ID": "83036912",
    "TLE_LINE0": "0 IRIDIUM 33 DEB",
    "TLE_LINE1": "1 34649U 97051KA  11128.97060639  .05062244  00000-0  41570-1 0  9992",
    "TLE_LINE2": "2 34649 086.3365 117.6452 0024932 151.6872 208.6358 15.69996882116895"
  },
  {
    "CCSDS_OMM_VERS": "3.0",
    "COMMENT": "GENERATED VIA SPACE-TRACK.ORG API",
    "CREATION_DATE": "2013-05-30T01:47:05",
    "ORIGINATOR": "18 SPCS",
    "OBJECT_NAME": "IRIDIUM 33 DEB",
    "OBJECT_ID": "1997-051KB",
    "CENTER_NAME": "EARTH",
    "REF_FRAME": "TEME",
    "TIME_SYSTEM": "UTC",
    "MEAN_ELEMENT_THEORY": "SGP4",
    "EPOCH": "2013-05-29T23:05:13.289567",
    "MEAN_MOTION": "15.84726219",
    "ECCENTRICITY": "0.00300590",
    "INCLINATION": "86.1863",
    "RA_OF_ASC_NODE": "127.2248",
    "ARG_OF_PERICENTER": "196.4871",
    "MEAN_ANOMALY": "222.3791",
    "EPHEMERIS_TYPE": "0",
    "CLASSIFICATION_TYPE": "U",
    "NORAD_CAT_ID": "34650",
    "ELEMENT_SET_NO": "999",
    "REV_AT_EPOCH": "22795",
    "BSTAR": "0.03359100000000",
    "MEAN_MOTION_DOT": "0.06320847",
    "MEAN_MOTION_DDOT": "0.0521860000000",
    "SEMIMAJOR_AXIS": "6695.237",
    "PERIOD": "90.867",
    "APOAPSIS": "337.227",
    "PERIAPSIS": "296.976",
    "OBJECT_TYPE": "DEBRIS",
    "RCS_SIZE": "SMALL",
    "COUNTRY_CODE": "US",
    "LAUNCH_DATE": "1997-09-14",
    "SITE": "TTMTR",
    "DECAY_DATE": "2013-05-30",
    "FILE": "1493013",
    "GP_ID": "92983530",
    "TLE_LINE0": "0 IRIDIUM 33 DEB",
    "TLE_LINE1": "1 34650U 97051KB  13149.96195937  .06320847  52186-1  33591-1 0  9992",
    "TLE_LINE2": "2 34650 086.1863 127.2248 0030059 196.4871 222.3791 15.84726219227957"
  },
  {
    "CCSDS_OMM_VERS": "3.0",
    "COMMENT": "GENERATED VIA SPACE-TRACK.ORG API",
    "CREATION_DATE": "2025-11-26T23:26:32",
    "ORIGINATOR": "18 SPCS",
    "OBJECT_NAME": "IRIDIUM 33 DEB",
    "OBJECT_ID": "1997-051KC",
    "CENTER_NAME": "EARTH",
    "REF_FRAME": "TEME",
    "TIME_SYSTEM": "UTC",
    "MEAN_ELEMENT_THEORY": "SGP4",
    "EPOCH": "2025-11-26T12:52:13.226016",
    "MEAN_MOTION": "14.25436144",
    "ECCENTRICITY": "0.01418790",
    "INCLINATION": "86.2833",
    "RA_OF_ASC_NODE": "147.4663",
    "ARG_OF_PERICENTER": "255.7887",
    "MEAN_ANOMALY": "102.7509",
    "EPHEMERIS_TYPE": "0",
    "CLASSIFICATION_TYPE": "U",
    "NORAD_CAT_ID": "34651",
    "ELEMENT_SET_NO": "999",
    "REV_AT_EPOCH": "85665",
    "BSTAR": "0.00299570000000",
    "MEAN_MOTION_DOT": "0.00007874",
    "MEAN_MOTION_DDOT": "0.0000000000000",
    "SEMIMAJOR_AXIS": "7185.164",
    "PERIOD": "101.022",
    "APOAPSIS": "908.971",
    "PERIAPSIS": "705.086",
    "OBJECT_TYPE": "DEBRIS",
    "RCS_SIZE": "SMALL",
    "COUNTRY_CODE": "US",
    "LAUNCH_DATE": "1997-09-14",
    "SITE": "TTMTR",
    "DECAY_DATE": null,
    "FILE": "4903531",
    "GP_ID": "303675608",
    "TLE_LINE0": "0 IRIDIUM 33 DEB",
    "TLE_LINE1": "1 34651U 97051KC  25330.53626419  .00007874  00000-0  29957-2 0  9990",
    "TLE_LINE2": "2 34651  86.2833 147.4663 0141879 255.7887 102.7509 14.25436144856652"
  },
  {
    "CCSDS_OMM_VERS": "3.0",
    "COMMENT": "GENERATED VIA SPACE-TRACK.ORG API",
    "CREATION_DATE": "2025-11-26T18:00:39",
    "ORIGINATOR": "18 SPCS",
    "OBJECT_NAME": "IRIDIUM 33 DEB",
    "OBJECT_ID": "1997-051KD",
    "CENTER_NAME": "EARTH",
    "REF_FRAME": "TEME",
    "TIME_SYSTEM": "UTC",
    "MEAN_ELEMENT_THEORY": "SGP4",
    "EPOCH": "2025-11-26T07:36:25.084800",
    "MEAN_MOTION": "14.61833169",
    "ECCENTRICITY": "0.00277411",
    "INCLINATION": "86.3338",
    "RA_OF_ASC_NODE": "347.3133",
    "ARG_OF_PERICENTER": "357.2789",
    "MEAN_ANOMALY": "22.8826",
    "EPHEMERIS_TYPE": "0",
    "CLASSIFICATION_TYPE": "U",
    "NORAD_CAT_ID": "34652",
    "ELEMENT_SET_NO": "999",
    "REV_AT_EPOCH": "88244",
    "BSTAR": "0.00102922240000",
    "MEAN_MOTION_DOT": "0.00005190",
    "MEAN_MOTION_DDOT": "0.0000000000000",
    "SEMIMAJOR_AXIS": "7065.398",
    "PERIOD": "98.506",
    "APOAPSIS": "706.863",
    "PERIAPSIS": "667.663",
    "OBJECT_TYPE": "DEBRIS",
    "RCS_SIZE": "SMALL",
    "COUNTRY_CODE": "US",
    "LAUNCH_DATE": "1997-09-14",
    "SITE": "TTMTR",
    "DECAY_DATE": null,
    "FILE": "4903404",
    "GP_ID": "303653225",
    "TLE_LINE0": "0 IRIDIUM 33 DEB",
    "TLE_LINE1": "1 34652U 97051KD  25330.31695700  .00005190  00000-0  10292-2 0  9997",
    "TLE_LINE2": "2 34652  86.3338 347.3133 0027741 357.2789  22.8826 14.61833169882445"
  },
  {
    "CCSDS_OMM_VERS": "3.0",
    "COMMENT": "GENERATED VIA SPACE-TRACK.ORG API",
    "CREATION_DATE": "2014-07-17T15:31:12",
    "ORIGINATOR": "18 SPCS",
    "OBJECT_NAME": "IRIDIUM 33 DEB",
    "OBJECT_ID": "1997-051KE",
    "CENTER_NAME": "EARTH",
    "REF_FRAME": "TEME",
    "TIME_SYSTEM": "UTC",
    "MEAN_ELEMENT_THEORY": "SGP4",
    "EPOCH": "2014-07-17T10:39:50.230367",
    "MEAN_MOTION": "15.65492931",
    "ECCENTRICITY": "0.00288900",
    "INCLINATION": "86.2913",
    "RA_OF_ASC_NODE": "8.4346",
    "ARG_OF_PERICENTER": "310.0532",
    "MEAN_ANOMALY": "80.4298",
    "EPHEMERIS_TYPE": "0",
    "CLASSIFICATION_TYPE": "U",
    "NORAD_CAT_ID": "34653",
    "ELEMENT_SET_NO": "999",
    "REV_AT_EPOCH": "28194",
    "BSTAR": "0.02869800000000",
    "MEAN_MOTION_DOT": "0.03381900",
    "MEAN_MOTION_DDOT": "0.0000000000000",
    "SEMIMAJOR_AXIS": "6749.962",
    "PERIOD": "91.983",
    "APOAPSIS": "391.328",
    "PERIAPSIS": "352.327",
    "OBJECT_TYPE": "DEBRIS",
    "RCS_SIZE": "SMALL",
    "COUNTRY_CODE": "US",
    "LAUNCH_DATE": "1997-09-14",
    "SITE": "TTMTR",
    "DECAY_DATE": "2014-07-20",
    "FILE": "1715256",
    "GP_ID": "96477921",
    "TLE_LINE0": "0 IRIDIUM 33 DEB",
    "TLE_LINE1": "1 34653U 97051KE  14198.44433137  .03381900  00000-0  28698-1 0  9993",
    "TLE_LINE2": "2 34653 086.2913 008.4346 0028890 310.0532 080.4298 15.65492931281948"
  }
]